KAITUO 1B               
1 40912U 15049P   17332.76253874  .00002093  00000-0  10529-3 0  9997
2 40912  97.4514 338.0077 0015509 356.2652  90.2182 15.18234048121254
TIANWANG 1C (TW-1C)     
1 40926U 15051B   17333.18603419  .00010354  00000-0  21463-3 0  9994
2 40926  97.2108  11.6048 0008989 293.4461 107.2742 15.45878972122388
TIANWANG 1B (TW-1B)     
1 40927U 15051C   17333.18823443  .00010075  00000-0  21726-3 0  9998
2 40927  97.2196  11.5479 0009423 309.7495 124.2159 15.44720369122314
TIANWANG 1A (TW-1A)     
1 40928U 15051D   17332.90086983  .00003660  00000-0  10151-3 0  9990
2 40928  97.2097   5.7307 0011539 334.0884 149.2169 15.37496999121996
LAPAN-A2 (IO-86)        
1 40931U 15052B   17332.11177266  .00000731  00000-0  12806-4 0  9999
2 40931   5.9957 143.8726 0013331  41.7090 318.4508 14.76556828117232
LQSAT                   
1 40958U 15057A   17333.11510050  .00000070  00000-0  18674-4 0  9991
2 40958  97.9632  45.4226 0016679 257.2349 102.7009 14.73003582115399
CHUBUSAT-2              
1 41338U 16012B   17332.87240601  .00000406  00000-0  25093-4 0  9996
2 41338  31.0022 146.2373 0014051 250.1768 109.7353 14.99877396 97732
CHUBUSAT-3              
1 41339U 16012C   17332.84510883  .00000414  00000-0  25589-4 0  9995
2 41339  31.0076 145.2989 0013994 256.3875 103.5199 15.00072435 97718
OUFTI-1                 
1 41458U 16025C   17332.82639848  .00002394  00000-0  12873-3 0  9992
2 41458  98.1636  19.7503 0173055  99.0983 262.9863 15.03981015 87319
E-ST@R-II               
1 41459U 16025D   17332.80090096  .00002246  00000-0  12103-3 0  9999
2 41459  98.1674  19.6364 0174724  99.7455 262.3522 15.03776851 87306
AAUSAT 4                
1 41460U 16025E   17332.88695788  .00003522  00000-0  18695-3 0  9998
2 41460  98.1589  19.9557 0165734  96.7893 265.2206 15.04949566 87356
NUSAT 1 (LO-87)         
1 41557U 16033B   17332.91460207  .00001867  00000-0  71452-4 0  9995
2 41557  97.4527  52.3952 0015066 140.9544 219.2786 15.27761164 83577
BEESAT-4                
1 41619U 16040W   17333.11419436  .00001968  00000-0  90471-4 0  9997
2 41619  97.4436  33.7960 0011156 204.1440 155.9274 15.21499697 67664
PRATHAM                 
1 41783U 16059A   17332.73145193  .00000087  00000-0  26292-4 0  9993
2 41783  98.1472  32.2241 0033671   7.1538 353.0137 14.62882915 62651
ALSAT 1N                
1 41789U 16059G   17332.72007230  .00000178  00000-0  42941-4 0  9997
2 41789  98.1473  33.0357 0028525   1.1555 358.9699 14.64105376 62681
NAYIF-1 (EO-88)         
1 42017U 17008BX  17332.91725732  .00001999  00000-0  86084-4 0  9990
2 42017  97.4763  33.9452 0006774  18.2696 341.8783 15.23772435 43565
LILACSAT-1              
1 42725U 98067ME  17332.85737004  .00018718  00000-0  22328-3 0  9995
2 42725  51.6382 293.1338 0004704 184.1862 175.9093 15.61091618 29161
MAX VALIER SAT          
1 42778U 17036P   17332.80094272  .00001591  00000-0  75027-4 0  9994
2 42778  97.4323  30.5697 0014049  56.1727 304.0844 15.20862463 24044
